DATA_TYPE EVENT IMS1.0
ISC Bulletin
Event  600516598 Near south coast of western Honshu
   Date       Time        Err   RMS Latitude Longitude  Smaj  Smin  Az Depth   Err Ndef Nsta Gap  mdist  Mdist Qual   Author      OrigID
2011/01/08 00:00:39.70   0.10        34.2400  135.4100   1.1   0.9  -1   5.0   4.0                                    JMA       00353623

Magnitude  Err Nsta Author      OrigID
       0.4          JMA       00353623

Event  600516599 Kyushu
   Date       Time        Err   RMS Latitude Longitude  Smaj  Smin  Az Depth   Err Ndef Nsta Gap  mdist  Mdist Qual   Author      OrigID
2011/01/08 00:01:31.90   0.20        31.0900  131.3100   3.3   1.9  -1  32.0   4.0                                    JMA       00353624

Magnitude  Err Nsta Author      OrigID
       1.1          JMA       00353624

Event   16868827 Southern Greece
   Date       Time        Err   RMS Latitude Longitude  Smaj  Smin  Az Depth   Err Ndef Nsta Gap  mdist  Mdist Qual   Author      OrigID
2011/01/08 00:03:54.40        0.500  37.6272   23.5680   0.9   0.5 120  12.4   0.6   55   30 139   0.29            ke THE       00984253

Magnitude  Err Nsta Author      OrigID
ML     2.1 0.2   12 THE       00984253

Event   15916121 Poland
   Date       Time        Err   RMS Latitude Longitude  Smaj  Smin  Az Depth   Err Ndef Nsta Gap  mdist  Mdist Qual   Author      OrigID
2011/01/08 00:04:29.93   0.86 1.169  50.1178   19.1442 5.747 3.054  12   0.0f        38   24 143   0.43   3.75 m i ki ISC       01765749


STOP
